{"type": "FeatureCollection", "features": [ {"type": "Feature", "properties": {"norad_id": 30305, "name": "FENGYUN 1C DEB", "group": "fengyun-1c-debris", "lat": 2.2568137403857085, "lon": 98.84574890390522, "alt_km": 913.2079057146921, "timestamp": "2025-12-03T08:58:46.276908+00:00", "meta": {"OBJECT_NAME": "FENGYUN 1C DEB", "OBJECT_ID": "1999-025ZS", "EPOCH": "2025-12-03T02:54:38.979072", "MEAN_MOTION": 13.60223036, "ECCENTRICITY": 0.0265473, "INCLINATION": 98.5859, "RA_OF_ASC_NODE": 278.2824, "ARG_OF_PERICENTER": 126.2016, "MEAN_ANOMALY": 251.4764, "EPHEMERIS_TYPE": 0, "CLASSIFICATION_TYPE": "U", "NORAD_CAT_ID": 30305, "ELEMENT_SET_NO": 999, "REV_AT_EPOCH": 93643, "BSTAR": 0.00028112, "MEAN_MOTION_DOT": 2.31e-06, "MEAN_MOTION_DDOT": 0}, "tle": {"line1": "1 30305U 99025ZS  25337.12128448  .00000231  00000+0  28112-3 0  9998", "line2": "2 30305  98.5859 278.2824 0265473 126.2016 251.4764 13.60223036936435"}}, "geometry": {"type": "Point", "coordinates": [98.84574890390522, 2.2568137403857085]}}, {"type": "Feature", "properties": {"norad_id": 30306, "name": "FENGYUN 1C DEB", "group": "fengyun-1c-debris", "lat": 30.738286499899935, "lon": -156.2396372082614, "alt_km": 841.0239851692222, "timestamp": "2025-12-03T08:58:46.276918+00:00", "meta": {"OBJECT_NAME": "FENGYUN 1C DEB", "OBJECT_ID": "1999-025ZT", "EPOCH": "2025-12-03T01:34:01.058592", "MEAN_MOTION": 14.28123888, "ECCENTRICITY": 0.0113881, "INCLINATION": 98.5881, "RA_OF_ASC_NODE": 18.3007, "ARG_OF_PERICENTER": 25.9725, "MEAN_ANOMALY": 334.7111, "EPHEMERIS_TYPE": 0, "CLASSIFICATION_TYPE": "U", "NORAD_CAT_ID": 30306, "ELEMENT_SET_NO": 999, "REV_AT_EPOCH": 97543, "BSTAR": 0.0013007, "MEAN_MOTION_DOT": 3.424e-05, "MEAN_MOTION_DDOT": 0}, "tle": {"line1": "1 30306U 99025ZT  25337.06529003  .00003424  00000+0  13007-2 0  9997", "line2": "2 30306  98.5881  18.3007 0113881  25.9725 334.7111 14.28123888975437"}}, "geometry": {"type": "Point", "coordinates": [-156.2396372082614, 30.738286499899935]}}, {"type": "Feature", "properties": {"norad_id": 30309, "name": "FENGYUN 1C DEB", "group": "fengyun-1c-debris", "lat": 42.37854617738496, "lon": -136.90786373730478, "alt_km": 900.8907400887883, "timestamp": "2025-12-03T08:58:46.276928+00:00", "meta": {"OBJECT_NAME": "FENGYUN 1C DEB", "OBJECT_ID": "1999-025ZW", "EPOCH": "2025-12-03T03:08:49.987104", "MEAN_MOTION": 13.93506466, "ECCENTRICITY": 0.0093012, "INCLINATION": 99.2274, "RA_OF_ASC_NODE": 34.32, "ARG_OF_PERICENTER": 217.9139, "MEAN_ANOMALY": 141.5448, "EPHEMERIS_TYPE": 0, "CLASSIFICATION_TYPE": "U", "NORAD_CAT_ID": 30309, "ELEMENT_SET_NO": 999, "REV_AT_EPOCH": 95899, "BSTAR": 0.00028131, "MEAN_MOTION_DOT": 3.37e-06, "MEAN_MOTION_DDOT": 0}, "tle": {"line1": "1 30309U 99025ZW  25337.13113411  .00000337  00000+0  28131-3 0  9995", "line2": "2 30309  99.2274  34.3200 0093012 217.9139 141.5448 13.93506466958999"}}, "geometry": {"type": "Point", "coordinates": [-136.90786373730478, 42.37854617738496]}}, {"type": "Feature", "properties": {"norad_id": 30310, "name": "FENGYUN 1C DEB", "group": "fengyun-1c-debris", "lat": -79.73978439880149, "lon": 54.777011873247496, "alt_km": 924.136400293658, "timestamp": "2025-12-03T08:58:46.276937+00:00", "meta": {"OBJECT_NAME": "FENGYUN 1C DEB", "OBJECT_ID": "1999-025ZX", "EPOCH": "2025-12-03T00:50:51.785376", "MEAN_MOTION": 14.08340389, "ECCENTRICITY": 0.0241468, "INCLINATION": 98.6657, "RA_OF_ASC_NODE": 357.0455, "ARG_OF_PERICENTER": 25.0043, "MEAN_ANOMALY": 336.2598, "EPHEMERIS_TYPE": 0, "CLASSIFICATION_TYPE": "U", "NORAD_CAT_ID": 30310, "ELEMENT_SET_NO": 999, "REV_AT_EPOCH": 96595, "BSTAR": 0.00079734, "MEAN_MOTION_DOT": 1.741e-05, "MEAN_MOTION_DDOT": 0}, "tle": {"line1": "1 30310U 99025ZX  25337.03532159  .00001741  00000+0  79734-3 0  9995", "line2": "2 30310  98.6657 357.0455 0241468  25.0043 336.2598 14.08340389965958"}}, "geometry": {"type": "Point", "coordinates": [54.777011873247496, -79.73978439880149]}}, {"type": "Feature", "properties": {"norad_id": 30311, "name": "FENGYUN 1C DEB", "group": "fengyun-1c-debris", "lat": 61.82333709361245, "lon": 55.91897258090373, "alt_km": 1077.8989917404897, "timestamp": "2025-12-03T08:58:46.276948+00:00", "meta": {"OBJECT_NAME": "FENGYUN 1C DEB", "OBJECT_ID": "1999-025ZY", "EPOCH": "2025-12-03T01:41:35.265120", "MEAN_MOTION": 13.77873177, "ECCENTRICITY": 0.0164931, "INCLINATION": 99.1399, "RA_OF_ASC_NODE": 73.1163, "ARG_OF_PERICENTER": 222.5928, "MEAN_ANOMALY": 136.2336, "EPHEMERIS_TYPE": 0, "CLASSIFICATION_TYPE": "U", "NORAD_CAT_ID": 30311, "ELEMENT_SET_NO": 999, "REV_AT_EPOCH": 94827, "BSTAR": 0.00057925, "MEAN_MOTION_DOT": 5.99e-06, "MEAN_MOTION_DDOT": 0}, "tle": {"line1": "1 30311U 99025ZY  25337.07054705  .00000599  00000+0  57925-3 0  9994", "line2": "2 30311  99.1399  73.1163 0164931 222.5928 136.2336 13.77873177948270"}}, "geometry": {"type": "Point", "coordinates": [55.91897258090373, 61.82333709361245]}}, {"type": "Feature", "properties": {"norad_id": 30312, "name": "FENGYUN 1C DEB", "group": "fengyun-1c-debris", "lat": 35.24696113362567, "lon": 49.89554339393594, "alt_km": 745.6691743460578, "timestamp": "2025-12-03T08:58:46.276958+00:00", "meta": {"OBJECT_NAME": "FENGYUN 1C DEB", "OBJECT_ID": "1999-025ZZ", "EPOCH": "2025-12-03T03:58:09.581088", "MEAN_MOTION": 14.45545494, "ECCENTRICITY": 0.0011573, "INCLINATION": 98.8675, "RA_OF_ASC_NODE": 56.0113, "ARG_OF_PERICENTER": 234.0601, "MEAN_ANOMALY": 155.982, "EPHEMERIS_TYPE": 0, "CLASSIFICATION_TYPE": "U", "NORAD_CAT_ID": 30312, "ELEMENT_SET_NO": 999, "REV_AT_EPOCH": 97782, "BSTAR": 0.0034885, "MEAN_MOTION_DOT": 0.00012294, "MEAN_MOTION_DDOT": 0}, "tle": {"line1": "1 30312U 99025ZZ  25337.16538867  .00012294  00000+0  34885-2 0  9995", "line2": "2 30312  98.8675  56.0113 0011573 234.0601 155.9820 14.45545494977821"}}, "geometry": {"type": "Point", "coordinates": [49.89554339393594, 35.24696113362567]}}, {"type": "Feature", "properties": {"norad_id": 30313, "name": "FENGYUN 1C DEB", "group": "fengyun-1c-debris", "lat": 79.60729487152874, "lon": 4.992356727655938, "alt_km": 793.1699551883084, "timestamp": "2025-12-03T08:58:46.276968+00:00", "meta": {"OBJECT_NAME": "FENGYUN 1C DEB", "OBJECT_ID": "1999-025AAA", "EPOCH": "2025-12-03T03:49:23.118240", "MEAN_MOTION": 14.25330298, "ECCENTRICITY": 0.005633, "INCLINATION": 98.8766, "RA_OF_ASC_NODE": 63.2158, "ARG_OF_PERICENTER": 4.5691, "MEAN_ANOMALY": 57.5643, "EPHEMERIS_TYPE": 0, "CLASSIFICATION_TYPE": "U", "NORAD_CAT_ID": 30313, "ELEMENT_SET_NO": 999, "REV_AT_EPOCH": 96953, "BSTAR": 0.0020447, "MEAN_MOTION_DOT": 4.854e-05, "MEAN_MOTION_DDOT": 0}, "tle": {"line1": "1 30313U 99025AAA 25337.15929535  .00004854  00000+0  20447-2 0  9993", "line2": "2 30313  98.8766  63.2158 0056330   4.5691  57.5643 14.25330298969532"}}, "geometry": {"type": "Point", "coordinates": [4.992356727655938, 79.60729487152874]}}, {"type": "Feature", "properties": {"norad_id": 30314, "name": "FENGYUN 1C DEB", "group": "fengyun-1c-debris", "lat": -23.041409600353216, "lon": -14.594811239239709, "alt_km": 998.9215722030704, "timestamp": "2025-12-03T08:58:46.276978+00:00", "meta": {"OBJECT_NAME": "FENGYUN 1C DEB", "OBJECT_ID": "1999-025AAB", "EPOCH": "2025-12-02T11:27:00.635616", "MEAN_MOTION": 14.01138352, "ECCENTRICITY": 0.01427043, "INCLINATION": 98.3813, "RA_OF_ASC_NODE": 168.1763, "ARG_OF_PERICENTER": 26.8556, "MEAN_ANOMALY": 333.9908, "EPHEMERIS_TYPE": 0, "CLASSIFICATION_TYPE": "U", "NORAD_CAT_ID": 30314, "ELEMENT_SET_NO": 999, "REV_AT_EPOCH": 95965, "BSTAR": 0.0012888921, "MEAN_MOTION_DOT": 2.076e-05, "MEAN_MOTION_DDOT": 0}, "tle": {"line1": "1 30314U 99025AAB 25336.47709069  .00002076  00000+0  12889-2 0  9991", "line2": "2 30314  98.3813 168.1763 0142704  26.8556 333.9908 14.01138352959654"}}, "geometry": {"type": "Point", "coordinates": [-14.594811239239709, -23.041409600353216]}}, {"type": "Feature", "properties": {"norad_id": 30315, "name": "FENGYUN 1C DEB", "group": "fengyun-1c-debris", "lat": 53.06617565778125, "lon": 178.7775130570546, "alt_km": 827.4348965281506, "timestamp": "2025-12-03T08:58:46.276989+00:00", "meta": {"OBJECT_NAME": "FENGYUN 1C DEB", "OBJECT_ID": "1999-025AAC", "EPOCH": "2025-12-03T00:03:40.123872", "MEAN_MOTION": 14.19042143, "ECCENTRICITY": 0.0035764, "INCLINATION": 98.6024, "RA_OF_ASC_NODE": 346.8001, "ARG_OF_PERICENTER": 28.2613, "MEAN_ANOMALY": 0.0656, "EPHEMERIS_TYPE": 0, "CLASSIFICATION_TYPE": "U", "NORAD_CAT_ID": 30315, "ELEMENT_SET_NO": 999, "REV_AT_EPOCH": 97569, "BSTAR": 0.00038793, "MEAN_MOTION_DOT": 7.73e-06, "MEAN_MOTION_DDOT": 0}, "tle": {"line1": "1 30315U 99025AAC 25337.00254773  .00000773  00000+0  38793-3 0  9994", "line2": "2 30315  98.6024 346.8001 0035764  28.2613   0.0656 14.19042143975694"}}, "geometry": {"type": "Point", "coordinates": [178.7775130570546, 53.06617565778125]}}, {"type": "Feature", "properties": {"norad_id": 30316, "name": "FENGYUN 1C DEB", "group": "fengyun-1c-debris", "lat": 16.341046799592448, "lon": 76.89267756678714, "alt_km": 691.8458016405821, "timestamp": "2025-12-03T08:58:46.276999+00:00", "meta": {"OBJECT_NAME": "FENGYUN 1C DEB", "OBJECT_ID": "1999-025AAD", "EPOCH": "2025-12-02T13:06:32.504256", "MEAN_MOTION": 14.55747906, "ECCENTRICITY": 0.00364085, "INCLINATION": 98.6489, "RA_OF_ASC_NODE": 78.5931, "ARG_OF_PERICENTER": 72.0179, "MEAN_ANOMALY": 288.498, "EPHEMERIS_TYPE": 0, "CLASSIFICATION_TYPE": "U", "NORAD_CAT_ID": 30316, "ELEMENT_SET_NO": 999, "REV_AT_EPOCH": 98188, "BSTAR": 0.0027306209, "MEAN_MOTION_DOT": 0.00012025, "MEAN_MOTION_DDOT": 0}, "tle": {"line1": "1 30316U 99025AAD 25336.54620954  .00012025  00000+0  27306-2 0  9991", "line2": "2 30316  98.6489  78.5931 0036408  72.0179 288.4980 14.55747906981880"}}, "geometry": {"type": "Point", "coordinates": [76.89267756678714, 16.341046799592448]}}]}